{"type": "FeatureCollection", "features": [{"type": "Feature", "properties": {"norad_id": 50032, "name": "COSMOS 1408 DEB", "group": "cosmos-1408-debris", "lat": 82.36591867658515, "lon": 162.88808166922357, "alt_km": 427.4080009917061, "timestamp": "2025-12-11T08:58:27.394026+00:00", "meta": {"OBJECT_NAME": "COSMOS 1408 DEB", "OBJECT_ID": "1982-092RU", "EPOCH": "2025-12-11T05:28:13.738656", "MEAN_MOTION": 15.45669243, "ECCENTRICITY": 0.0015114, "INCLINATION": 82.564, "RA_OF_ASC_NODE": 60.0581, "ARG_OF_PERICENTER": 214.3913, "MEAN_ANOMALY": 145.6359, "EPHEMERIS_TYPE": 0, "CLASSIFICATION_TYPE": "U", "NORAD_CAT_ID": 50032, "ELEMENT_SET_NO": 999, "REV_AT_EPOCH": 22580, "BSTAR": 0.00015919, "MEAN_MOTION_DOT": 7.748e-05, "MEAN_MOTION_DDOT": 0}, "tle": {"line1": "1 50032U 82092RU  25345.22793679  .00007748  00000+0  15919-3 0  9998", "line2": "2 50032  82.5640  60.0581 0015114 214.3913 145.6359 15.45669243225807"}}, "geometry": {"type": "Point", "coordinates": [162.88808166922357, 82.36591867658515]}}, {"type": "Feature", "properties": {"norad_id": 50058, "name": "COSMOS 1408 DEB", "group": "cosmos-1408-debris", "lat": -23.591091781693606, "lon": -105.98150439955484, "alt_km": 383.9585163039055, "timestamp": "2025-12-11T08:58:27.394047+00:00", "meta": {"OBJECT_NAME": "COSMOS 1408 DEB", "OBJECT_ID": "1982-092SW", "EPOCH": "2025-12-11T05:02:11.052096", "MEAN_MOTION": 15.63951237, "ECCENTRICITY": 0.0016423, "INCLINATION": 82.6126, "RA_OF_ASC_NODE": 70.942, "ARG_OF_PERICENTER": 103.1856, "MEAN_ANOMALY": 257.1236, "EPHEMERIS_TYPE": 0, "CLASSIFICATION_TYPE": "U", "NORAD_CAT_ID": 50058, "ELEMENT_SET_NO": 999, "REV_AT_EPOCH": 22780, "BSTAR": 0.00045354, "MEAN_MOTION_DOT": 0.00043131, "MEAN_MOTION_DDOT": 0}, "tle": {"line1": "1 50058U 82092SW  25345.20985014  .00043131  00000+0  45354-3 0  9992", "line2": "2 50058  82.6126  70.9420 0016423 103.1856 257.1236 15.63951237227804"}}, "geometry": {"type": "Point", "coordinates": [-105.98150439955484, -23.591091781693606]}}, {"type": "Feature", "properties": {"norad_id": 50404, "name": "COSMOS 1408 DEB", "group": "cosmos-1408-debris", "lat": -20.815355629566465, "lon": 39.41803172603628, "alt_km": 411.9886304401907, "timestamp": "2025-12-11T08:58:27.394061+00:00", "meta": {"OBJECT_NAME": "COSMOS 1408 DEB", "OBJECT_ID": "1982-092ADS", "EPOCH": "2025-12-11T01:44:16.771776", "MEAN_MOTION": 15.13391943, "ECCENTRICITY": 0.0172666, "INCLINATION": 82.2029, "RA_OF_ASC_NODE": 216.7405, "ARG_OF_PERICENTER": 204.633, "MEAN_ANOMALY": 154.6586, "EPHEMERIS_TYPE": 0, "CLASSIFICATION_TYPE": "U", "NORAD_CAT_ID": 50404, "ELEMENT_SET_NO": 999, "REV_AT_EPOCH": 21168, "BSTAR": 0.0039306, "MEAN_MOTION_DOT": 0.00102745, "MEAN_MOTION_DDOT": 0}, "tle": {"line1": "1 50404U 82092ADS 25345.07241634  .00102745  00000+0  39306-2 0  9991", "line2": "2 50404  82.2029 216.7405 0172666 204.6330 154.6586 15.13391943211681"}}, "geometry": {"type": "Point", "coordinates": [39.41803172603628, -20.815355629566465]}}, {"type": "Feature", "properties": {"norad_id": 50621, "name": "COSMOS 1408 DEB", "group": "cosmos-1408-debris", "lat": -74.74932691871552, "lon": -75.79895162704143, "alt_km": 408.0655422717973, "timestamp": "2025-12-11T08:58:27.394073+00:00", "meta": {"OBJECT_NAME": "COSMOS 1408 DEB", "OBJECT_ID": "1982-092ALR", "EPOCH": "2025-12-10T07:11:23.446752", "MEAN_MOTION": 15.564597, "ECCENTRICITY": 0.00288412, "INCLINATION": 82.5698, "RA_OF_ASC_NODE": 76.7205, "ARG_OF_PERICENTER": 161.3855, "MEAN_ANOMALY": 198.8462, "EPHEMERIS_TYPE": 0, "CLASSIFICATION_TYPE": "U", "NORAD_CAT_ID": 50621, "ELEMENT_SET_NO": 999, "REV_AT_EPOCH": 22212, "BSTAR": 0.00053677944, "MEAN_MOTION_DOT": 0.00038838, "MEAN_MOTION_DDOT": 0}, "tle": {"line1": "1 50621U 82092ALR 25344.29957693  .00038838  00000+0  53678-3 0  9994", "line2": "2 50621  82.5698  76.7205 0028841 161.3855 198.8462 15.56459700222122"}}, "geometry": {"type": "Point", "coordinates": [-75.79895162704143, -74.74932691871552]}}]}